METHANESAT              
1 59101U 24043D   25200.63535729  .00002871  00000+0  26414-3 0  9995
2 59101  97.8040 326.5514 0011957  47.5882 312.6349 14.95505422 74904
GOSAT-GW (IBUKI GW)     
1 64694U 25141A   25200.87540936  .00000651  00000+0  12308-3 0  9991
2 64694  98.0258 139.1999 0001476  80.5409 279.5963 14.67590099  3103
GHGSAT-C1               
1 46278U 20061G   25200.99267266  .00013332  00000+0  22659-3 0  9990
2 46278  97.2497 274.9315 0002560 153.5114 206.6269 15.51565235271673
GHGSAT-C2               
1 47509U 21006DA  25201.08281568  .00004494  00000+0  14480-3 0  9992
2 47509  97.2663 249.1374 0004064 284.3678  75.7113 15.32688929248890
GHGSAT-C3               
1 52737U 22057F   25200.89191086  .00006888  00000+0  24950-3 0  9993
2 52737  97.6160 331.4949 0006143 205.4756 154.6182 15.28702506174679
GHGSAT-C4               
1 52746U 22057Q   25200.84467683  .00005049  00000+0  18373-3 0  9997
2 52746  97.6091 330.6074 0006706 190.8930 169.2165 15.28693186174674
GHGSAT-C5               
1 52744U 22057N   25200.99183257  .00004959  00000+0  18057-3 0  9991
2 52744  97.6248 332.7861 0007216 202.7674 157.3246 15.28680773174696
GHGSAT-C6               
1 56204U 23054AC  25200.82568674  .00008312  00000+0  19491-3 0  9996
2 56204  97.3282 102.0503 0009824 159.3212 200.8435 15.42280509127050
GHGSAT-C7               
1 56209U 23054AH  25200.83481419  .00006742  00000+0  16263-3 0  9992
2 56209  97.3243 101.6179 0009980 153.2820 206.8943 15.41502173127050
GHGSAT-C8               
1 56186U 23054J   25200.86548782  .00008454  00000+0  19821-3 0  9991
2 56186  97.3251 101.5773 0006501 172.7019 187.4325 15.42306423127042
SENTINEL-5P             
1 42969U 17064A   25200.58012459  .00000038  00000+0  38942-4 0  9991
2 42969  98.7586 140.6333 0001337  88.5169 271.6160 14.19532927402378
ENMAP                   
1 52159U 22033C   25200.88893502  .00000327  00000+0  56126-4 0  9999
2 52159  97.9784 282.9121 0001379  86.5359 273.6007 14.74961979177679
PRISMA                  
1 44072U 19015A   25200.92225735  .00000676  00000+0  88208-4 0  9995
2 44072  97.8743 275.4531 0001489  90.0318 270.1067 14.83679554342786
SENTINEL-2A             
1 40697U 15028A   25200.90703864  .00000071  00000+0  43749-4 0  9996
2 40697  98.5684 275.5259 0001184  93.6842 266.4476 14.30818320526210
SENTINEL-2B             
1 42063U 17013A   25201.17957223  .00000073  00000+0  44679-4 0  9996
2 42063  98.5687 275.7365 0001238  99.5297 260.6026 14.30820272437173
SENTINEL-2C             
1 60989U 24157A   25200.44554490  .00000066  00000+0  41711-4 0  9994
2 60989  98.5676 275.0877 0001204  97.7969 262.3351 14.30818678 45406
LANDSAT 8               
1 39084U 13008A   25201.14536627  .00000256  00000+0  66826-4 0  9994
2 39084  98.2241 271.2169 0001316  88.7527 271.3822 14.57105044661366
LANDSAT 9               
1 49260U 21088A   25200.90500272  .00000276  00000+0  71344-4 0  9991
2 49260  98.2262 270.9788 0001460  86.9132 273.2234 14.57102162202605
TANAGER-1               
1 60507U 24149AR  25199.48522956  .00010344  00000+0  23032-3 0  9999
2 60507  97.4057 284.2001 0009409 242.2334 117.7960 15.43770758 51555
